[
  {
    "COMMENT": "GENERATED VIA SPACETRACK.ORG API",
    "ORIGINATOR": "JSPOC",
    "NORAD_CAT_ID": "40076",
    "OBJECT_NAME": "TDS 1",
    "OBJECT_TYPE": "PAYLOAD",
    "CLASSIFICATION_TYPE": "U",
    "INTLDES": "14037H",
    "EPOCH": "2015-09-05 21:44:07",
    "EPOCH_MICROSECONDS": "80000",
    "MEAN_MOTION": "14.80991647",
    "ECCENTRICITY": "0.0006266",
    "INCLINATION": "98.3459",
    "RA_OF_ASC_NODE": "323.7441",
    "ARG_OF_PERICENTER": "14.7145",
    "MEAN_ANOMALY": "345.4228",
    "EPHEMERIS_TYPE": "0",
    "ELEMENT_SET_NO": "999",
    "REV_AT_EPOCH": "6276",
    "BSTAR": "3.4468e-05",
    "MEAN_MOTION_DOT": "2.1e-06",
    "MEAN_MOTION_DDOT": "0",
    "FILE": "1922372",
    "TLE_LINE0": "0 TDS 1",
    "TLE_LINE1": "1 40076U 14037H   15248.90563750 +.00000210 +00000-0 +34468-4 0  9999",
    "TLE_LINE2": "2 40076 098.3459 323.7441 0006266 014.7145 345.4228 14.80991647062761",
    "OBJECT_ID": "2014-037H",
    "OBJECT_NUMBER": "40076",
    "SEMIMAJOR_AXIS": "7004.332",
    "PERIOD": "97.232",
    "APOGEE": "630.586",
    "PERIGEE": "621.808"
  },
  {
    "COMMENT": "GENERATED VIA SPACETRACK.ORG API",
    "ORIGINATOR": "JSPOC",
    "NORAD_CAT_ID": "40076",
    "OBJECT_NAME": "TDS 1",
    "OBJECT_TYPE": "PAYLOAD",
    "CLASSIFICATION_TYPE": "U",
    "INTLDES": "14037H",
    "EPOCH": "2015-09-06 02:35:59",
    "EPOCH_MICROSECONDS": "431200",
    "MEAN_MOTION": "14.80991723",
    "ECCENTRICITY": "0.0006276",
    "INCLINATION": "98.3459",
    "RA_OF_ASC_NODE": "323.955",
    "ARG_OF_PERICENTER": "14.0354",
    "MEAN_ANOMALY": "346.1031",
    "EPHEMERIS_TYPE": "0",
    "ELEMENT_SET_NO": "999",
    "REV_AT_EPOCH": "6279",
    "BSTAR": "3.3589e-05",
    "MEAN_MOTION_DOT": "2.03e-06",
    "MEAN_MOTION_DDOT": "0",
    "FILE": "1922186",
    "TLE_LINE0": "0 TDS 1",
    "TLE_LINE1": "1 40076U 14037H   15249.10832675  .00000203  00000-0  33589-4 0  9992",
    "TLE_LINE2": "2 40076  98.3459 323.9550 0006276  14.0354 346.1031 14.80991723 62798",
    "OBJECT_ID": "2014-037H",
    "OBJECT_NUMBER": "40076",
    "SEMIMAJOR_AXIS": "7004.332",
    "PERIOD": "97.232",
    "APOGEE": "630.593",
    "PERIGEE": "621.801"
  },
  {
    "COMMENT": "GENERATED VIA SPACETRACK.ORG API",
    "ORIGINATOR": "JSPOC",
    "NORAD_CAT_ID": "40076",
    "OBJECT_NAME": "TDS 1",
    "OBJECT_TYPE": "PAYLOAD",
    "CLASSIFICATION_TYPE": "U",
    "INTLDES": "14037H",
    "EPOCH": "2015-09-06 09:05:09",
    "EPOCH_MICROSECONDS": "167712",
    "MEAN_MOTION": "14.80991943",
    "ECCENTRICITY": "0.0006245",
    "INCLINATION": "98.3458",
    "RA_OF_ASC_NODE": "324.2362",
    "ARG_OF_PERICENTER": "13.1977",
    "MEAN_ANOMALY": "346.9396",
    "EPHEMERIS_TYPE": "0",
    "ELEMENT_SET_NO": "999",
    "REV_AT_EPOCH": "6283",
    "BSTAR": "3.4142e-05",
    "MEAN_MOTION_DOT": "2.07e-06",
    "MEAN_MOTION_DDOT": "0",
    "FILE": "1922326",
    "TLE_LINE0": "0 TDS 1",
    "TLE_LINE1": "1 40076U 14037H   15249.37857833  .00000207  00000-0  34142-4 0  9994",
    "TLE_LINE2": "2 40076  98.3458 324.2362 0006245  13.1977 346.9396 14.80991943 62830",
    "OBJECT_ID": "2014-037H",
    "OBJECT_NUMBER": "40076",
    "SEMIMAJOR_AXIS": "7004.331",
    "PERIOD": "97.232",
    "APOGEE": "630.571",
    "PERIGEE": "621.822"
  },
  {
    "COMMENT": "GENERATED VIA SPACETRACK.ORG API",
    "ORIGINATOR": "JSPOC",
    "NORAD_CAT_ID": "40076",
    "OBJECT_NAME": "TDS 1",
    "OBJECT_TYPE": "PAYLOAD",
    "CLASSIFICATION_TYPE": "U",
    "INTLDES": "14037H",
    "EPOCH": "2015-09-06 17:11:36",
    "EPOCH_MICROSECONDS": "353472",
    "MEAN_MOTION": "14.80992183",
    "ECCENTRICITY": "0.0006218",
    "INCLINATION": "98.3457",
    "RA_OF_ASC_NODE": "324.5875",
    "ARG_OF_PERICENTER": "12.3049",
    "MEAN_ANOMALY": "347.8319",
    "EPHEMERIS_TYPE": "0",
    "ELEMENT_SET_NO": "999",
    "REV_AT_EPOCH": "6288",
    "BSTAR": "3.4367e-05",
    "MEAN_MOTION_DOT": "2.09e-06",
    "MEAN_MOTION_DDOT": "0",
    "FILE": "1922464",
    "TLE_LINE0": "0 TDS 1",
    "TLE_LINE1": "1 40076U 14037H   15249.71639298  .00000209  00000-0  34367-4 0  9996",
    "TLE_LINE2": "2 40076  98.3457 324.5875 0006218  12.3049 347.8319 14.80992183 62889",
    "OBJECT_ID": "2014-037H",
    "OBJECT_NUMBER": "40076",
    "SEMIMAJOR_AXIS": "7004.331",
    "PERIOD": "97.232",
    "APOGEE": "630.551",
    "PERIGEE": "621.840"
  },
  {
    "COMMENT": "GENERATED VIA SPACETRACK.ORG API",
    "ORIGINATOR": "JSPOC",
    "NORAD_CAT_ID": "40076",
    "OBJECT_NAME": "TDS 1",
    "OBJECT_TYPE": "PAYLOAD",
    "CLASSIFICATION_TYPE": "U",
    "INTLDES": "14037H",
    "EPOCH": "2015-09-06 22:03:28",
    "EPOCH_MICROSECONDS": "655424",
    "MEAN_MOTION": "14.80992168",
    "ECCENTRICITY": "0.0006217",
    "INCLINATION": "98.3456",
    "RA_OF_ASC_NODE": "324.7983",
    "ARG_OF_PERICENTER": "11.5724",
    "MEAN_ANOMALY": "348.5619",
    "EPHEMERIS_TYPE": "0",
    "ELEMENT_SET_NO": "999",
    "REV_AT_EPOCH": "6291",
    "BSTAR": "3.2844e-05",
    "MEAN_MOTION_DOT": "1.97e-06",
    "MEAN_MOTION_DDOT": "0",
    "FILE": "1922783",
    "TLE_LINE0": "0 TDS 1",
    "TLE_LINE1": "1 40076U 14037H   15249.91908166 +.00000197 +00000-0 +32844-4 0  9995",
    "TLE_LINE2": "2 40076 098.3456 324.7983 0006217 011.5724 348.5619 14.80992168062918",
    "OBJECT_ID": "2014-037H",
    "OBJECT_NUMBER": "40076",
    "SEMIMAJOR_AXIS": "7004.331",
    "PERIOD": "97.232",
    "APOGEE": "630.550",
    "PERIGEE": "621.841"
  },
  {
    "COMMENT": "GENERATED VIA SPACETRACK.ORG API",
    "ORIGINATOR": "JSPOC",
    "NORAD_CAT_ID": "40076",
    "OBJECT_NAME": "TDS 1",
    "OBJECT_TYPE": "PAYLOAD",
    "CLASSIFICATION_TYPE": "U",
    "INTLDES": "14037H",
    "EPOCH": "2015-09-07 01:18:03",
    "EPOCH_MICROSECONDS": "546144",
    "MEAN_MOTION": "14.80992281",
    "ECCENTRICITY": "0.0006202",
    "INCLINATION": "98.3456",
    "RA_OF_ASC_NODE": "324.9387",
    "ARG_OF_PERICENTER": "11.2746",
    "MEAN_ANOMALY": "348.8609",
    "EPHEMERIS_TYPE": "0",
    "ELEMENT_SET_NO": "999",
    "REV_AT_EPOCH": "6293",
    "BSTAR": "3.3212e-05",
    "MEAN_MOTION_DOT": "2e-06",
    "MEAN_MOTION_DDOT": "0",
    "FILE": "1922621",
    "TLE_LINE0": "0 TDS 1",
    "TLE_LINE1": "1 40076U 14037H   15250.05420771  .00000200  00000-0  33212-4 0  9998",
    "TLE_LINE2": "2 40076  98.3456 324.9387 0006202  11.2746 348.8609 14.80992281 62933",
    "OBJECT_ID": "2014-037H",
    "OBJECT_NUMBER": "40076",
    "SEMIMAJOR_AXIS": "7004.330",
    "PERIOD": "97.232",
    "APOGEE": "630.539",
    "PERIGEE": "621.851"
  },
  {
    "COMMENT": "GENERATED VIA SPACETRACK.ORG API",
    "ORIGINATOR": "JSPOC",
    "NORAD_CAT_ID": "40076",
    "OBJECT_NAME": "TDS 1",
    "OBJECT_TYPE": "PAYLOAD",
    "CLASSIFICATION_TYPE": "U",
    "INTLDES": "14037H",
    "EPOCH": "2015-09-07 09:24:30",
    "EPOCH_MICROSECONDS": "708576",
    "MEAN_MOTION": "14.80992485",
    "ECCENTRICITY": "0.000617",
    "INCLINATION": "98.3455",
    "RA_OF_ASC_NODE": "325.2902",
    "ARG_OF_PERICENTER": "10.2441",
    "MEAN_ANOMALY": "349.8895",
    "EPHEMERIS_TYPE": "0",
    "ELEMENT_SET_NO": "999",
    "REV_AT_EPOCH": "6298",
    "BSTAR": "3.3079e-05",
    "MEAN_MOTION_DOT": "1.99e-06",
    "MEAN_MOTION_DDOT": "0",
    "FILE": "1922753",
    "TLE_LINE0": "0 TDS 1",
    "TLE_LINE1": "1 40076U 14037H   15250.39202209  .00000199  00000-0  33079-4 0  9997",
    "TLE_LINE2": "2 40076  98.3455 325.2902 0006170  10.2441 349.8895 14.80992485 62983",
    "OBJECT_ID": "2014-037H",
    "OBJECT_NUMBER": "40076",
    "SEMIMAJOR_AXIS": "7004.330",
    "PERIOD": "97.232",
    "APOGEE": "630.516",
    "PERIGEE": "621.873"
  },
  {
    "COMMENT": "GENERATED VIA SPACETRACK.ORG API",
    "ORIGINATOR": "JSPOC",
    "NORAD_CAT_ID": "40076",
    "OBJECT_NAME": "TDS 1",
    "OBJECT_TYPE": "PAYLOAD",
    "CLASSIFICATION_TYPE": "U",
    "INTLDES": "14037H",
    "EPOCH": "2015-09-07 17:30:57",
    "EPOCH_MICROSECONDS": "889152",
    "MEAN_MOTION": "14.80993477",
    "ECCENTRICITY": "0.0006093",
    "INCLINATION": "98.3449",
    "RA_OF_ASC_NODE": "325.6416",
    "ARG_OF_PERICENTER": "8.334",
    "MEAN_ANOMALY": "351.8036",
    "EPHEMERIS_TYPE": "0",
    "ELEMENT_SET_NO": "999",
    "REV_AT_EPOCH": "6303",
    "BSTAR": "2.5565e-05",
    "MEAN_MOTION_DOT": "1.41e-06",
    "MEAN_MOTION_DDOT": "0",
    "FILE": "1922908",
    "TLE_LINE0": "0 TDS 1",
    "TLE_LINE1": "1 40076U 14037H   15250.72983668  .00000141  00000-0  25565-4 0  9997",
    "TLE_LINE2": "2 40076  98.3449 325.6416 0006093   8.3340 351.8036 14.80993477 63039",
    "OBJECT_ID": "2014-037H",
    "OBJECT_NUMBER": "40076",
    "SEMIMAJOR_AXIS": "7004.326",
    "PERIOD": "97.232",
    "APOGEE": "630.459",
    "PERIGEE": "621.924"
  },
  {
    "COMMENT": "GENERATED VIA SPACETRACK.ORG API",
    "ORIGINATOR": "JSPOC",
    "NORAD_CAT_ID": "40076",
    "OBJECT_NAME": "TDS 1",
    "OBJECT_TYPE": "PAYLOAD",
    "CLASSIFICATION_TYPE": "U",
    "INTLDES": "14037H",
    "EPOCH": "2015-09-07 22:22:50",
    "EPOCH_MICROSECONDS": "81376",
    "MEAN_MOTION": "14.80992878",
    "ECCENTRICITY": "0.0006072",
    "INCLINATION": "98.3447",
    "RA_OF_ASC_NODE": "325.8524",
    "ARG_OF_PERICENTER": "8.0694",
    "MEAN_ANOMALY": "352.0578",
    "EPHEMERIS_TYPE": "0",
    "ELEMENT_SET_NO": "999",
    "REV_AT_EPOCH": "6306",
    "BSTAR": "1.9079e-05",
    "MEAN_MOTION_DOT": "9e-07",
    "MEAN_MOTION_DDOT": "0",
    "FILE": "1923271",
    "TLE_LINE0": "0 TDS 1",
    "TLE_LINE1": "1 40076U 14037H   15250.93252409 +.00000090 +00000-0 +19079-4 0  9998",
    "TLE_LINE2": "2 40076 098.3447 325.8524 0006072 008.0694 352.0578 14.80992878063066",
    "OBJECT_ID": "2014-037H",
    "OBJECT_NUMBER": "40076",
    "SEMIMAJOR_AXIS": "7004.328",
    "PERIOD": "97.232",
    "APOGEE": "630.446",
    "PERIGEE": "621.940"
  }
]
